0 COSMOS 2064
1 20549U 90029A   13283.17383397 -.00000029  00000-0 -91579-4 0  2124
2 20549 073.9855 026.4492 0016372 076.2549 332.0773 12.47158579 70661
0 COSMOS 2064
1 20549U 90029A   13285.43749061 -.00000028  00000-0 -81105-4 0  2133
2 20549 073.9857 023.4487 0016384 072.7442 055.5142 12.47158436 70940
0 COSMOS 2064
1 20549U 90029A   13287.52158081 -.00000003  00000-0  90212-4 0  2143
2 20549 073.9857 020.6864 0016379 069.4722 052.7680 12.47158152 71207
0 COSMOS 2064
1 20549U 90029A   13289.68456093  .00000013  00000-0  19475-3 0  2158
2 20549 073.9854 017.8195 0016388 066.0973 044.2024 12.47158106 71476
0 COSMOS 2064
1 20549U 90029A   13292.16474927  .00000000  00000-0  11086-3 0  2168
2 20549 073.9850 014.5320 0016419 062.2967 019.7808 12.47158380 71787
0 COSMOS 2064
1 20549U 90029A   13294.17059990 -.00000014  00000-0  12188-4 0  2172
2 20549 073.9849 011.8732 0016422 059.1439 025.7526 12.47158618 72032
0 COSMOS 2064
1 20549U 90029A   13296.17671193 -.00000027  00000-0 -75969-4 0  2181
2 20549 073.9848 009.2139 0016438 056.0226 032.8676 12.47158688 72289
